[{"OBJECT_NAME":"ASTROCAST-0401","OBJECT_ID":"2023-001DF","EPOCH":"2026-03-09T17:04:53.382144","MEAN_MOTION":15.26258462,"ECCENTRICITY":0.00081423,"INCLINATION":97.5547,"RA_OF_ASC_NODE":160.5206,"ARG_OF_PERICENTER":188.4231,"MEAN_ANOMALY":171.6872,"EPHEMERIS_TYPE":0,"CLASSIFICATION_TYPE":"U","NORAD_CAT_ID":55110,"ELEMENT_SET_NO":999,"REV_AT_EPOCH":17602,"BSTAR":0.00037868349,"MEAN_MOTION_DOT":9.75e-5,"MEAN_MOTION_DDOT":0},{"OBJECT_NAME":"STARLINK-33963","OBJECT_ID":"2025-099S","EPOCH":"2026-03-08T16:06:05.996736","MEAN_MOTION":15.27577129,"ECCENTRICITY":9.858e-5,"INCLINATION":42.9946,"RA_OF_ASC_NODE":181.6926,"ARG_OF_PERICENTER":305.2913,"MEAN_ANOMALY":54.7846,"EPHEMERIS_TYPE":0,"CLASSIFICATION_TYPE":"U","NORAD_CAT_ID":63968,"ELEMENT_SET_NO":999,"REV_AT_EPOCH":4718,"BSTAR":0.0013112414,"MEAN_MOTION_DOT":0.00035994,"MEAN_MOTION_DDOT":0}]
